STARLINK-2260
1 27996C 21024V   21325.03736590 -.00667227  00000-0 -15912-1 0  3254
2 27996  53.0435  86.1750 0001662  38.4061 243.4891 15.41650511    12
